SARAH-1                 
1 52887U 22063A   22174.76914807  .00057931  00000+0  16917-1 0  9990
2 52887  98.3930 181.8659 0001741 114.3380 245.7128 14.43706701  1277
GLOBALSTAR FM15         
1 52888U 22064A   22188.10877231 -.00000128  00000+0  00000+0 0  9995
2 52888  51.9750 167.7792 0009561   0.7509 359.3400 13.37539565  2363
PVSAT                   
1 52894U 22065A   22187.78305695  .00000106  00000+0  32961-4 0  9997
2 52894  98.0222 338.5280 0009526 182.9153 177.1992 14.57465397  2259
KSLV-II DUMMY           
1 52895U 22065B   22187.91383096  .00000000  00000+0  96707-5 0  9996
2 52895  98.0232 338.6705 0007811 199.4500 160.6403 14.58136262  2282
KSLV-II R/B             
1 52896U 22065C   22187.93579775  .00000792  00000+0  16535-3 0  9997
2 52896  98.0710 338.8847 0005811  57.6250 302.5514 14.62510392  2283
STEP CUBE LAB-II        
1 52897U 22065D   22188.47421938  .00000265  00000+0  66965-4 0  9993
2 52897  98.0203 339.2026 0008691 203.2064 203.4487 14.58252903  1188
RANDEV                  
1 52898U 22065E   22188.41377250  .00000315  00000+0  77566-4 0  9990
2 52898  98.0210 339.1422 0008159 206.3384 239.4492 14.58321952   897
SNUGLITE-II             
1 52899U 22065F   22188.05543507  .00000035  00000+0  17079-4 0  9993
2 52899  98.0229 338.7967 0007313 206.9976 153.0774 14.58341741   556
MIMAN                   
1 52900U 22065G   22187.85094974  .00003661  00000+0  80291-3 0  9995
2 52900  98.0236 338.5978 0007545 200.9499 159.1274 14.58177268   146
TIANXING-1              
1 52901U 22066A   22188.57998814  .00124707  78267-5  31601-3 0  9995
2 52901  96.7503 233.1375 0011537 267.0590 253.9370 15.95422492  2463
CMS-02 (GSAT 24)        
1 52903U 22067A   22187.39464419 -.00000265  00000+0  00000+0 0  9998
2 52903   0.0864 267.2542 0003709 238.8388  13.9204  1.00376705   172
MEASAT 3D               
1 52904U 22067B   22187.75297663 -.00000229  00000+0  00000+0 0  9994
2 52904   0.0843 281.7762 0001219 124.0847 241.4134  1.00273653   207
ARIANE 5 DEB [SYLDA]    
1 52905U 22067C   22187.23609452  .00013566  00000+0  48615-2 0  9995
2 52905   6.0513  60.1206 7273234 188.9368 141.9490  2.28515838   307
ARIANE 5 R/B            
1 52906U 22067D   22187.64306730  .00002442  00000+0  71796-3 0  9992
2 52906   6.2110  58.0168 7277917 191.0581 133.4029  2.28686393   321
YAOGAN-35 D             
1 52907U 22068A   22188.45449648  .00004262  00000+0  17821-3 0  9991
2 52907  34.9970 191.9284 0005707  25.2194 131.7611 15.23014039  2182
YAOGAN-35 E             
1 52908U 22068B   22188.45125296  .00003609  00000+0  15108-3 0  9992
2 52908  34.9956 191.9039 0008379  77.7355  78.0002 15.23023183  2158
YAOGAN-35 F             
1 52909U 22068C   22188.45486318 -.00052188  00000+0 -21363-2 0  9995
2 52909  34.9959 191.9338 0007204  30.3992 126.4520 15.23659813  2194
CZ-2D R/B               
1 52910U 22068D   22187.70187073  .00014252  00000+0  56309-3 0  9997
2 52910  34.9973 196.6224 0008918  26.4637 333.6548 15.24643592  2047
CZ-2D DEB               
1 52911U 22068E   22188.41972581  .00009614  00000+0  37818-3 0  9993
2 52911  34.9985 192.0604 0008360  42.0879 318.0480 15.24859445  2156
GAOFEN 12-3             
1 52912U 22069A   22188.55903543  .00000465  00000+0  68092-4 0  9996
2 52912  97.9843  76.1880 0001195 105.3708 254.7606 14.80226319  1479
CZ-4C R/B               
1 52913U 22069B   22187.92917832  .00001437  00000+0  94093-4 0  9993
2 52913  97.9729  75.9098 0074027  14.9171 345.4207 15.07297546  1390
CAPSTONE                
1 52914U 22070A   22184.14236111 -.00000375  00000+0  00000+0 0  9992
2 52914  39.0806 321.8334 8405410 344.4990 285.0037  1.02266752   396
PHOTON                  
1 52916U 22070C   22184.14236111 -.00000375  00000+0  00000+0 0  9994
2 52916  39.0806 321.8334 8405410 344.4990 285.0037  1.02266752   398
NACHOS                  
1 52917U 22015D   22183.93580469  .00016310  00000+0  25117-3 0  9993
2 52917  51.6452 258.4544 0007988 330.6503 200.2494 15.54315374   642
SES-22                  
1 52933U 22071A   22187.58814082  .00000103  00000+0  00000+0 0  9992
2 52933   0.0589 270.4011 0009185   4.1574  79.0940  1.00577048   107
FALCON 9 R/B            
1 52934U 22071B   22187.21699813  .00000446  00000+0  42390-3 0  9998
2 52934  16.5616  64.4009 7252544 183.5329 164.7634  2.28751180   143
DS-EO                   
1 52935U 22072A   22187.75604705  .00002051  00000+0  10550-3 0  9992
2 52935   9.9966  30.8758 0006222  41.3959 318.6726 14.99639429   918
2022-072B               
1 52936U 22072B   22187.95452669  .00005129  00000+0  34543-3 0  9992
2 52936   9.9916  29.4581 0007607  41.1808 318.8984 14.99902593   958
2022-072C               
1 52937U 22072C   22187.95311096  .00003375  00000+0  20613-3 0  9995
2 52937   9.9932  29.4597 0008685  52.1432 307.9613 15.00221907   972
2022-072D               
1 52938U 22072D   22182.10135734  .00002312  00000+0  10000-3 0  9990
2 52938   9.8997  72.2486 0024259 193.5521 166.3691 15.06369760    92
2022-072E               
1 52939U 22072E   22187.80722776  .00002986  00000+0  15581-3 0  9997
2 52939   9.9537  30.2380 0036433  41.0812 319.2126 15.03363966   954
RECURVE                 
1 52944U 22074A   22187.92044253  .00002693  00000+0  12352-3 0  9993
2 52944  44.9960  92.6044 0004011 290.3036  69.7311 15.23215408   707
2022-074B               
1 52945U 22074B   22187.92009776  .00004268  00000+0  18810-3 0  9990
2 52945  44.9944  92.6026 0003957 280.8039  79.2383 15.23336973   701
2022-074C               
1 52946U 22074C   22187.88665985  .00005320  00000+0  16020-3 0  9997
2 52946  44.9940  92.3504 0047193 235.4050 124.2358 15.34491364   706
SLIGHTSHOT1             
1 52947U 22074D   22187.91864142  .00005192  00000+0  22307-3 0  9990
2 52947  44.9865  92.5921 0004216 249.6029 110.4391 15.23822982   706
2022-074E               
1 52948U 22074E   22187.91719927  .00004028  00000+0  17328-3 0  9995
2 52948  44.9853  92.5844 0005262 229.1204 130.9204 15.24295677   704
2022-074F               
1 52949U 22074F   22188.18197363  .00008014  00000+0  34112-3 0  9999
2 52949  44.9920  91.1776 0004788 272.1789  87.8547 15.23492742   742
2022-074G               
1 52950U 22074G   22188.18208628  .00007839  00000+0  33432-3 0  9996
2 52950  45.0016  91.1748 0003780 275.7845  84.2612 15.23457154   746
2022-074H               
1 52951U 22074H   22188.57560333  .00007430  00000+0  31771-3 0  9995
2 52951  44.9866  89.0436 0003799 282.4711  77.5747 15.23432074   800
2022-065H               
1 52983U 22065H   22188.53815348 -.00058439  00000+0 -12837-1 0  9992
2 52983  98.0100 339.2453 0006637 199.4963 160.5967 14.57958695    46
